CCSDS_OMM_VERS = 2.0
CREATION_DATE  = 
ORIGINATOR     = 

OBJECT_NAME    = DELTA 2 R/B(1)
OBJECT_ID      = 1990-008B
CENTER_NAME    = EARTH
REF_FRAME      = TEME
TIME_SYSTEM    = UTC
MEAN_ELEMENT_THEORY = SGP/SGP4

EPOCH          = 2026-02-24T06:38:56.256000
MEAN_MOTION    = 15.53959114
ECCENTRICITY   = .0088234
INCLINATION    = 35.6034
RA_OF_ASC_NODE = 262.7467
ARG_OF_PERICENTER = 133.7714
MEAN_ANOMALY   = 227.0363

EPHEMERIS_TYPE = 0
CLASSIFICATION_TYPE = U
NORAD_CAT_ID   = 20453
ELEMENT_SET_NO = 999
REV_AT_EPOCH   = 92404
BSTAR          = .74298E-3
MEAN_MOTION_DOT = .59249E-3
MEAN_MOTION_DDOT = 0

CCSDS_OMM_VERS = 2.0
CREATION_DATE  = 
ORIGINATOR     = 

OBJECT_NAME    = COSMOS 2058
OBJECT_ID      = 1990-010A
CENTER_NAME    = EARTH
REF_FRAME      = TEME
TIME_SYSTEM    = UTC
MEAN_ELEMENT_THEORY = SGP/SGP4

EPOCH          = 2026-02-24T11:19:35.255712
MEAN_MOTION    = 15.11188148
ECCENTRICITY   = .0010297
INCLINATION    = 82.4674
RA_OF_ASC_NODE = 60.4501
ARG_OF_PERICENTER = 27.9457
MEAN_ANOMALY   = 332.2323

EPHEMERIS_TYPE = 0
CLASSIFICATION_TYPE = U
NORAD_CAT_ID   = 20465
ELEMENT_SET_NO = 999
REV_AT_EPOCH   = 94024
BSTAR          = .24117E-3
MEAN_MOTION_DOT = .408E-4
MEAN_MOTION_DDOT = 0

CCSDS_OMM_VERS = 2.0
CREATION_DATE  = 
ORIGINATOR     = 

OBJECT_NAME    = SL-14 R/B
OBJECT_ID      = 1990-010B
CENTER_NAME    = EARTH
REF_FRAME      = TEME
TIME_SYSTEM    = UTC
MEAN_ELEMENT_THEORY = SGP/SGP4

EPOCH          = 2026-02-24T07:58:41.629728
MEAN_MOTION    = 14.83556186
ECCENTRICITY   = .0019496
INCLINATION    = 82.5001
RA_OF_ASC_NODE = 279.9383
ARG_OF_PERICENTER = 348.3941
MEAN_ANOMALY   = 11.6822

EPHEMERIS_TYPE = 0
CLASSIFICATION_TYPE = U
NORAD_CAT_ID   = 20466
ELEMENT_SET_NO = 999
REV_AT_EPOCH   = 92650
BSTAR          = .42606E-4
MEAN_MOTION_DOT = .375E-5
MEAN_MOTION_DDOT = 0

CCSDS_OMM_VERS = 2.0
CREATION_DATE  = 
ORIGINATOR     = 

OBJECT_NAME    = SL-14 R/B
OBJECT_ID      = 1990-018B
CENTER_NAME    = EARTH
REF_FRAME      = TEME
TIME_SYSTEM    = UTC
MEAN_ELEMENT_THEORY = SGP/SGP4

EPOCH          = 2026-02-24T11:20:16.725120
MEAN_MOTION    = 14.82128363
ECCENTRICITY   = .0017378
INCLINATION    = 82.5182
RA_OF_ASC_NODE = 235.4454
ARG_OF_PERICENTER = 132.3081
MEAN_ANOMALY   = 227.9609

EPHEMERIS_TYPE = 0
CLASSIFICATION_TYPE = U
NORAD_CAT_ID   = 20511
ELEMENT_SET_NO = 999
REV_AT_EPOCH   = 92062
BSTAR          = .57778E-4
MEAN_MOTION_DOT = .484E-5
MEAN_MOTION_DDOT = 0

CCSDS_OMM_VERS = 2.0
CREATION_DATE  = 
ORIGINATOR     = 

OBJECT_NAME    = HST
OBJECT_ID      = 1990-037B
CENTER_NAME    = EARTH
REF_FRAME      = TEME
TIME_SYSTEM    = UTC
MEAN_ELEMENT_THEORY = SGP/SGP4

EPOCH          = 2026-02-24T12:00:20.302272
MEAN_MOTION    = 15.29250789
ECCENTRICITY   = .0001224
INCLINATION    = 28.4688
RA_OF_ASC_NODE = 129.9586
ARG_OF_PERICENTER = 343.5481
MEAN_ANOMALY   = 16.5075

EPHEMERIS_TYPE = 0
CLASSIFICATION_TYPE = U
NORAD_CAT_ID   = 20580
ELEMENT_SET_NO = 999
REV_AT_EPOCH   = 77129
BSTAR          = .25044E-3
MEAN_MOTION_DOT = .7544E-4
MEAN_MOTION_DDOT = 0

CCSDS_OMM_VERS = 2.0
CREATION_DATE  = 
ORIGINATOR     = 

OBJECT_NAME    = SL-16 R/B
OBJECT_ID      = 1990-046B
CENTER_NAME    = EARTH
REF_FRAME      = TEME
TIME_SYSTEM    = UTC
MEAN_ELEMENT_THEORY = SGP/SGP4

EPOCH          = 2026-02-24T11:28:05.536704
MEAN_MOTION    = 14.15015233
ECCENTRICITY   = .0015778
INCLINATION    = 71.0016
RA_OF_ASC_NODE = 325.6608
ARG_OF_PERICENTER = 317.6923
MEAN_ANOMALY   = 42.2982

EPHEMERIS_TYPE = 0
CLASSIFICATION_TYPE = U
NORAD_CAT_ID   = 20625
ELEMENT_SET_NO = 999
REV_AT_EPOCH   = 84652
BSTAR          = .33516E-4
MEAN_MOTION_DOT = .17E-6
MEAN_MOTION_DDOT = 0

CCSDS_OMM_VERS = 2.0
CREATION_DATE  = 
ORIGINATOR     = 

OBJECT_NAME    = COSMOS 2084
OBJECT_ID      = 1990-055A
CENTER_NAME    = EARTH
REF_FRAME      = TEME
TIME_SYSTEM    = UTC
MEAN_ELEMENT_THEORY = SGP/SGP4

EPOCH          = 2026-02-24T07:20:21.507936
MEAN_MOTION    = 15.05554175
ECCENTRICITY   = .001917
INCLINATION    = 62.7912
RA_OF_ASC_NODE = 21.2210
ARG_OF_PERICENTER = 186.8885
MEAN_ANOMALY   = 173.1955

EPHEMERIS_TYPE = 0
CLASSIFICATION_TYPE = U
NORAD_CAT_ID   = 20663
ELEMENT_SET_NO = 999
REV_AT_EPOCH   = 93430
BSTAR          = .22669E-3
MEAN_MOTION_DOT = .3091E-4
MEAN_MOTION_DDOT = 0

CCSDS_OMM_VERS = 2.0
CREATION_DATE  = 
ORIGINATOR     = 

OBJECT_NAME    = SL-6 R/B(2)
OBJECT_ID      = 1990-055D
CENTER_NAME    = EARTH
REF_FRAME      = TEME
TIME_SYSTEM    = UTC
MEAN_ELEMENT_THEORY = SGP/SGP4

EPOCH          = 2026-02-24T09:40:41.993184
MEAN_MOTION    = 15.03524237
ECCENTRICITY   = .0022701
INCLINATION    = 62.7832
RA_OF_ASC_NODE = 299.0322
ARG_OF_PERICENTER = 343.6258
MEAN_ANOMALY   = 16.4105

EPHEMERIS_TYPE = 0
CLASSIFICATION_TYPE = U
NORAD_CAT_ID   = 20666
ELEMENT_SET_NO = 999
REV_AT_EPOCH   = 93619
BSTAR          = .17224E-3
MEAN_MOTION_DOT = .2173E-4
MEAN_MOTION_DDOT = 0

CCSDS_OMM_VERS = 2.0
CREATION_DATE  = 
ORIGINATOR     = 

OBJECT_NAME    = SL-8 R/B
OBJECT_ID      = 1990-078B
CENTER_NAME    = EARTH
REF_FRAME      = TEME
TIME_SYSTEM    = UTC
MEAN_ELEMENT_THEORY = SGP/SGP4

EPOCH          = 2026-02-24T01:36:12.598272
MEAN_MOTION    = 14.88570021
ECCENTRICITY   = .0365179
INCLINATION    = 82.9006
RA_OF_ASC_NODE = 263.5590
ARG_OF_PERICENTER = 59.7005
MEAN_ANOMALY   = 303.9811

EPHEMERIS_TYPE = 0
CLASSIFICATION_TYPE = U
NORAD_CAT_ID   = 20775
ELEMENT_SET_NO = 999
REV_AT_EPOCH   = 80727
BSTAR          = .44058961E-3
MEAN_MOTION_DOT = .15018E-3
MEAN_MOTION_DDOT = 0

CCSDS_OMM_VERS = 2.0
CREATION_DATE  = 
ORIGINATOR     = 

OBJECT_NAME    = SL-8 R/B
OBJECT_ID      = 1991-006B
CENTER_NAME    = EARTH
REF_FRAME      = TEME
TIME_SYSTEM    = UTC
MEAN_ELEMENT_THEORY = SGP/SGP4

EPOCH          = 2026-02-24T11:30:24.021216
MEAN_MOTION    = 13.77492776
ECCENTRICITY   = .0023656
INCLINATION    = 82.9459
RA_OF_ASC_NODE = 179.8660
ARG_OF_PERICENTER = 73.7610
MEAN_ANOMALY   = 358.9983

EPHEMERIS_TYPE = 0
CLASSIFICATION_TYPE = U
NORAD_CAT_ID   = 21088
ELEMENT_SET_NO = 999
REV_AT_EPOCH   = 76225
BSTAR          = .39201E-4
MEAN_MOTION_DOT = .55E-6
MEAN_MOTION_DDOT = 0

CCSDS_OMM_VERS = 2.0
CREATION_DATE  = 
ORIGINATOR     = 

OBJECT_NAME    = OKEAN-3
OBJECT_ID      = 1991-039A
CENTER_NAME    = EARTH
REF_FRAME      = TEME
TIME_SYSTEM    = UTC
MEAN_ELEMENT_THEORY = SGP/SGP4

EPOCH          = 2026-02-24T07:30:35.908704
MEAN_MOTION    = 15.04698290
ECCENTRICITY   = .0014996
INCLINATION    = 82.5203
RA_OF_ASC_NODE = 349.7995
ARG_OF_PERICENTER = 22.9720
MEAN_ANOMALY   = 337.2174

EPHEMERIS_TYPE = 0
CLASSIFICATION_TYPE = U
NORAD_CAT_ID   = 21397
ELEMENT_SET_NO = 999
REV_AT_EPOCH   = 86302
BSTAR          = .24528E-3
MEAN_MOTION_DOT = .3487E-4
MEAN_MOTION_DDOT = 0

CCSDS_OMM_VERS = 2.0
CREATION_DATE  = 
ORIGINATOR     = 

OBJECT_NAME    = COSMOS 2151
OBJECT_ID      = 1991-042A
CENTER_NAME    = EARTH
REF_FRAME      = TEME
TIME_SYSTEM    = UTC
MEAN_ELEMENT_THEORY = SGP/SGP4

EPOCH          = 2026-02-24T11:25:03.713088
MEAN_MOTION    = 15.00048626
ECCENTRICITY   = .0014115
INCLINATION    = 82.4940
RA_OF_ASC_NODE = 96.4254
ARG_OF_PERICENTER = 103.1258
MEAN_ANOMALY   = 257.1542

EPHEMERIS_TYPE = 0
CLASSIFICATION_TYPE = U
NORAD_CAT_ID   = 21422
ELEMENT_SET_NO = 999
REV_AT_EPOCH   = 86121
BSTAR          = .12054E-3
MEAN_MOTION_DOT = .153E-4
MEAN_MOTION_DDOT = 0

